[
    {
        "CCSDS_OMM_VERS": "3.0",
        "COMMENT": "GENERATED VIA SPACE-TRACK.ORG API",
        "CREATION_DATE": "2025-03-02T18:08:23",
        "ORIGINATOR": "18 SPCS",
        "OBJECT_NAME": "GALILEO 17 (26D)",
        "OBJECT_ID": "2016-069C",
        "CENTER_NAME": "EARTH",
        "REF_FRAME": "TEME",
        "TIME_SYSTEM": "UTC",
        "MEAN_ELEMENT_THEORY": "SGP4",
        "EPOCH": "2025-03-02T08:30:26.034336",
        "MEAN_MOTION": "1.70474972",
        "ECCENTRICITY": "0.00051520",
        "INCLINATION": "55.2157",
        "RA_OF_ASC_NODE": "114.1594",
        "ARG_OF_PERICENTER": "281.5446",
        "MEAN_ANOMALY": "78.4869",
        "EPHEMERIS_TYPE": "0",
        "CLASSIFICATION_TYPE": "U",
        "NORAD_CAT_ID": "41861",
        "ELEMENT_SET_NO": "999",
        "REV_AT_EPOCH": "5147",
        "BSTAR": "0.00000000000000",
        "MEAN_MOTION_DOT": "0.00000024",
        "MEAN_MOTION_DDOT": "0.0000000000000",
        "SEMIMAJOR_AXIS": "29600.208",
        "PERIOD": "844.699",
        "APOAPSIS": "23237.323",
        "PERIAPSIS": "23206.823",
        "OBJECT_TYPE": "PAYLOAD",
        "RCS_SIZE": "LARGE",
        "COUNTRY_CODE": "ESA",
        "LAUNCH_DATE": "2016-11-17",
        "SITE": "FRGUI",
        "DECAY_DATE": null,
        "FILE": "4657142",
        "GP_ID": "282086647",
        "TLE_LINE0": "0 GALILEO 17 (26D)",
        "TLE_LINE1": "1 41861U 16069C   25061.35446799  .00000024  00000-0  00000-0 0  9999",
        "TLE_LINE2": "2 41861  55.2157 114.1594 0005152 281.5446  78.4869  1.70474972 51475"
    }
]